[{"OBJECT_NAME":"QIANKUN-1","OBJECT_ID":"2023-103B","EPOCH":"2026-03-05T12:49:33.234816","MEAN_MOTION":16.08514637,"ECCENTRICITY":0.0030783,"INCLINATION":96.1968,"RA_OF_ASC_NODE":116.327,"ARG_OF_PERICENTER":170.3202,"MEAN_ANOMALY":189.8684,"EPHEMERIS_TYPE":0,"CLASSIFICATION_TYPE":"U","NORAD_CAT_ID":57422,"ELEMENT_SET_NO":999,"REV_AT_EPOCH":15064,"BSTAR":5.663e-7,"MEAN_MOTION_DOT":-2.1e-7,"MEAN_MOTION_DDOT":1.6855e-6},{"OBJECT_NAME":"OBJECT B","OBJECT_ID":"2023-104B","EPOCH":"2026-03-05T18:47:40.750656","MEAN_MOTION":15.94335358,"ECCENTRICITY":0.0002824,"INCLINATION":97.2684,"RA_OF_ASC_NODE":153.2892,"ARG_OF_PERICENTER":313.4785,"MEAN_ANOMALY":46.6255,"EPHEMERIS_TYPE":0,"CLASSIFICATION_TYPE":"U","NORAD_CAT_ID":57425,"ELEMENT_SET_NO":999,"REV_AT_EPOCH":14745,"BSTAR":0.00083704,"MEAN_MOTION_DOT":0.00310555,"MEAN_MOTION_DDOT":3.9393e-5},{"OBJECT_NAME":"INTUITION-1","OBJECT_ID":"2023-174CW","EPOCH":"2026-03-05T16:47:21.145920","MEAN_MOTION":15.91927054,"ECCENTRICITY":0.0003593,"INCLINATION":97.3761,"RA_OF_ASC_NODE":160.7517,"ARG_OF_PERICENTER":235.1056,"MEAN_ANOMALY":124.988,"EPHEMERIS_TYPE":0,"CLASSIFICATION_TYPE":"U","NORAD_CAT_ID":58565,"ELEMENT_SET_NO":999,"REV_AT_EPOCH":13024,"BSTAR":0.0012972,"MEAN_MOTION_DOT":0.00424677,"MEAN_MOTION_DDOT":7.1211e-5},{"OBJECT_NAME":"OBJECT B","OBJECT_ID":"2024-085B","EPOCH":"2026-03-05T16:14:39.577344","MEAN_MOTION":15.95064058,"ECCENTRICITY":0.0009578,"INCLINATION":97.336,"RA_OF_ASC_NODE":156.7294,"ARG_OF_PERICENTER":299.1041,"MEAN_ANOMALY":60.9275,"EPHEMERIS_TYPE":0,"CLASSIFICATION_TYPE":"U","NORAD_CAT_ID":59678,"ELEMENT_SET_NO":999,"REV_AT_EPOCH":10277,"BSTAR":0.0013226,"MEAN_MOTION_DOT":0.00512161,"MEAN_MOTION_DDOT":0.0001087},{"OBJECT_NAME":"OBJECT D","OBJECT_ID":"2024-095D","EPOCH":"2026-03-05T01:21:24.857280","MEAN_MOTION":15.92155338,"ECCENTRICITY":0.00052609,"INCLINATION":97.5303,"RA_OF_ASC_NODE":167.7716,"ARG_OF_PERICENTER":254.9341,"MEAN_ANOMALY":105.1351,"EPHEMERIS_TYPE":0,"CLASSIFICATION_TYPE":"U","NORAD_CAT_ID":59813,"ELEMENT_SET_NO":999,"REV_AT_EPOCH":10015,"BSTAR":0.001780105,"MEAN_MOTION_DOT":0.00589793,"MEAN_MOTION_DDOT":0.0001403731},{"OBJECT_NAME":"RUZAEVKA 390 (RS44S)","OBJECT_ID":"2024-199AH","EPOCH":"2026-03-05T13:26:37.383360","MEAN_MOTION":16.06831134,"ECCENTRICITY":0.0002291,"INCLINATION":97.2825,"RA_OF_ASC_NODE":306.6088,"ARG_OF_PERICENTER":166.856,"MEAN_ANOMALY":193.2782,"EPHEMERIS_TYPE":0,"CLASSIFICATION_TYPE":"U","NORAD_CAT_ID":61766,"ELEMENT_SET_NO":999,"REV_AT_EPOCH":11886,"BSTAR":0.001712,"MEAN_MOTION_DOT":0.01278622,"MEAN_MOTION_DDOT":0.00099584},{"OBJECT_NAME":"COSMOS 2591","OBJECT_ID":"2025-182A","EPOCH":"2026-03-05T17:44:49.431264","MEAN_MOTION":15.9640134,"ECCENTRICITY":0.0007944,"INCLINATION":96.5938,"RA_OF_ASC_NODE":358.0582,"ARG_OF_PERICENTER":172.1859,"MEAN_ANOMALY":187.9545,"EPHEMERIS_TYPE":0,"CLASSIFICATION_TYPE":"U","NORAD_CAT_ID":65267,"ELEMENT_SET_NO":999,"REV_AT_EPOCH":3119,"BSTAR":0.00018326,"MEAN_MOTION_DOT":0.00075753,"MEAN_MOTION_DDOT":4.043e-6},{"OBJECT_NAME":"COSMOS 2592","OBJECT_ID":"2025-182B","EPOCH":"2026-03-05T15:06:51.282144","MEAN_MOTION":15.96382533,"ECCENTRICITY":0.000717,"INCLINATION":96.5906,"RA_OF_ASC_NODE":357.9096,"ARG_OF_PERICENTER":168.5536,"MEAN_ANOMALY":191.5907,"EPHEMERIS_TYPE":0,"CLASSIFICATION_TYPE":"U","NORAD_CAT_ID":65268,"ELEMENT_SET_NO":999,"REV_AT_EPOCH":3117,"BSTAR":1.1848e-5,"MEAN_MOTION_DOT":4.342e-5,"MEAN_MOTION_DDOT":1.8609e-6},{"OBJECT_NAME":"COSMOS 2593","OBJECT_ID":"2025-182C","EPOCH":"2026-03-05T13:59:10.158144","MEAN_MOTION":15.96412483,"ECCENTRICITY":0.0007309,"INCLINATION":96.5882,"RA_OF_ASC_NODE":357.8369,"ARG_OF_PERICENTER":166.2302,"MEAN_ANOMALY":193.9177,"EPHEMERIS_TYPE":0,"CLASSIFICATION_TYPE":"U","NORAD_CAT_ID":65269,"ELEMENT_SET_NO":999,"REV_AT_EPOCH":3116,"BSTAR":5.8016e-5,"MEAN_MOTION_DOT":0.00023585,"MEAN_MOTION_DDOT":2.0678e-6},{"OBJECT_NAME":"COSMOS 2594","OBJECT_ID":"2025-182D","EPOCH":"2026-03-05T14:21:44.746848","MEAN_MOTION":15.9639362,"ECCENTRICITY":0.0007039,"INCLINATION":96.5907,"RA_OF_ASC_NODE":357.8208,"ARG_OF_PERICENTER":167.7756,"MEAN_ANOMALY":192.3695,"EPHEMERIS_TYPE":0,"CLASSIFICATION_TYPE":"U","NORAD_CAT_ID":65270,"ELEMENT_SET_NO":999,"REV_AT_EPOCH":3118,"BSTAR":0.00024191,"MEAN_MOTION_DOT":0.00100071,"MEAN_MOTION_DDOT":5.6759e-6},{"OBJECT_NAME":"ISS OBJECT XK","OBJECT_ID":"1998-067XK","EPOCH":"2026-03-05T10:08:56.907168","MEAN_MOTION":16.09887648,"ECCENTRICITY":0.0004832,"INCLINATION":51.6145,"RA_OF_ASC_NODE":68.9863,"ARG_OF_PERICENTER":74.1567,"MEAN_ANOMALY":285.9979,"EPHEMERIS_TYPE":0,"CLASSIFICATION_TYPE":"U","NORAD_CAT_ID":65731,"ELEMENT_SET_NO":999,"REV_AT_EPOCH":2621,"BSTAR":0.0012997,"MEAN_MOTION_DOT":0.0123534,"MEAN_MOTION_DDOT":0.00097089},{"OBJECT_NAME":"CZ-4B R/B","OBJECT_ID":"2025-289B","EPOCH":"2026-03-05T18:42:18.402624","MEAN_MOTION":16.40428135,"ECCENTRICITY":0.0013828,"INCLINATION":97.4944,"RA_OF_ASC_NODE":143.3403,"ARG_OF_PERICENTER":32.5553,"MEAN_ANOMALY":327.6596,"EPHEMERIS_TYPE":0,"CLASSIFICATION_TYPE":"U","NORAD_CAT_ID":66989,"ELEMENT_SET_NO":999,"REV_AT_EPOCH":1372,"BSTAR":0.00037995,"MEAN_MOTION_DOT":0.06076419,"MEAN_MOTION_DDOT":2.5834e-6},{"OBJECT_NAME":"STARLINK-36618","OBJECT_ID":"2026-033AC","EPOCH":"2026-03-05T16:00:00.999936","MEAN_MOTION":15.93139811,"ECCENTRICITY":0.0002103,"INCLINATION":42.9848,"RA_OF_ASC_NODE":294.0562,"ARG_OF_PERICENTER":265.4848,"MEAN_ANOMALY":285.8816,"EPHEMERIS_TYPE":0,"CLASSIFICATION_TYPE":"U","NORAD_CAT_ID":67847,"ELEMENT_SET_NO":999,"REV_AT_EPOCH":401,"BSTAR":-0.0032621,"MEAN_MOTION_DOT":-0.01190593,"MEAN_MOTION_DDOT":0.00042026},{"OBJECT_NAME":"STARLINK-36818","OBJECT_ID":"2026-035A","EPOCH":"2026-03-05T16:00:00.999936","MEAN_MOTION":15.9632681,"ECCENTRICITY":0.0001308,"INCLINATION":97.2766,"RA_OF_ASC_NODE":356.6935,"ARG_OF_PERICENTER":98.0525,"MEAN_ANOMALY":82.7096,"EPHEMERIS_TYPE":0,"CLASSIFICATION_TYPE":"U","NORAD_CAT_ID":67879,"ELEMENT_SET_NO":999,"REV_AT_EPOCH":311,"BSTAR":-0.0023198,"MEAN_MOTION_DOT":-0.00956842,"MEAN_MOTION_DDOT":0.00029007},{"OBJECT_NAME":"STARLINK-36821","OBJECT_ID":"2026-035B","EPOCH":"2026-03-05T16:00:00.999936","MEAN_MOTION":15.96476891,"ECCENTRICITY":0.0001271,"INCLINATION":97.2761,"RA_OF_ASC_NODE":356.6968,"ARG_OF_PERICENTER":98.2075,"MEAN_ANOMALY":89.577,"EPHEMERIS_TYPE":0,"CLASSIFICATION_TYPE":"U","NORAD_CAT_ID":67880,"ELEMENT_SET_NO":999,"REV_AT_EPOCH":311,"BSTAR":-0.0023191,"MEAN_MOTION_DOT":-0.00964307,"MEAN_MOTION_DDOT":0.00029476}]
